[{"OBJECT_NAME":"ONEWEB-0258","OBJECT_ID":"2021-060K","EPOCH":"2026-05-31T03:46:06.843360","MEAN_MOTION":13.16593655,"ECCENTRICITY":0.0001949,"INCLINATION":87.9107,"RA_OF_ASC_NODE":232.1641,"ARG_OF_PERICENTER":99.2966,"MEAN_ANOMALY":260.8385,"EPHEMERIS_TYPE":0,"CLASSIFICATION_TYPE":"U","NORAD_CAT_ID":48976,"ELEMENT_SET_NO":999,"REV_AT_EPOCH":23735,"BSTAR":-0.00015296000000000003,"MEAN_MOTION_DOT":-4.6e-07,"MEAN_MOTION_DDOT":0.0},{"OBJECT_NAME":"ONEWEB-0259","OBJECT_ID":"2021-060L","EPOCH":"2026-05-31T03:37:00.287328","MEAN_MOTION":13.16593598,"ECCENTRICITY":0.0001865,"INCLINATION":87.9106,"RA_OF_ASC_NODE":232.1648,"ARG_OF_PERICENTER":101.8848,"MEAN_ANOMALY":258.2492,"EPHEMERIS_TYPE":0,"CLASSIFICATION_TYPE":"U","NORAD_CAT_ID":48977,"ELEMENT_SET_NO":999,"REV_AT_EPOCH":23738,"BSTAR":0.00011082,"MEAN_MOTION_DOT":5.5e-07,"MEAN_MOTION_DDOT":0.0},{"OBJECT_NAME":"ONEWEB-0260","OBJECT_ID":"2021-060M","EPOCH":"2026-05-31T05:13:52.831776","MEAN_MOTION":13.16593114,"ECCENTRICITY":0.0002233,"INCLINATION":87.9101,"RA_OF_ASC_NODE":232.1537,"ARG_OF_PERICENTER":90.314,"MEAN_ANOMALY":269.8246,"EPHEMERIS_TYPE":0,"CLASSIFICATION_TYPE":"U","NORAD_CAT_ID":48978,"ELEMENT_SET_NO":999,"REV_AT_EPOCH":23737,"BSTAR":0.00017731,"MEAN_MOTION_DOT":8.1e-07,"MEAN_MOTION_DDOT":0.0},{"OBJECT_NAME":"ONEWEB-0261","OBJECT_ID":"2021-060N","EPOCH":"2026-05-31T04:30:34.310304","MEAN_MOTION":13.16594793,"ECCENTRICITY":0.0001749,"INCLINATION":87.9102,"RA_OF_ASC_NODE":232.1595,"ARG_OF_PERICENTER":92.3806,"MEAN_ANOMALY":267.7525,"EPHEMERIS_TYPE":0,"CLASSIFICATION_TYPE":"U","NORAD_CAT_ID":48979,"ELEMENT_SET_NO":999,"REV_AT_EPOCH":23742,"BSTAR":-1.5336e-05,"MEAN_MOTION_DOT":7e-08,"MEAN_MOTION_DDOT":0.0},{"OBJECT_NAME":"ONEWEB-0262","OBJECT_ID":"2021-060P","EPOCH":"2026-05-30T15:16:01.771968","MEAN_MOTION":13.16593524,"ECCENTRICITY":0.0001858,"INCLINATION":87.9107,"RA_OF_ASC_NODE":232.2545,"ARG_OF_PERICENTER":106.7387,"MEAN_ANOMALY":253.3948,"EPHEMERIS_TYPE":0,"CLASSIFICATION_TYPE":"U","NORAD_CAT_ID":48980,"ELEMENT_SET_NO":999,"REV_AT_EPOCH":23731,"BSTAR":-9.149e-05,"MEAN_MOTION_DOT":-2.2e-07,"MEAN_MOTION_DDOT":0.0},{"OBJECT_NAME":"ONEWEB-0263","OBJECT_ID":"2021-060Q","EPOCH":"2026-05-31T04:47:40.617024","MEAN_MOTION":13.16593687,"ECCENTRICITY":0.000168,"INCLINATION":87.9106,"RA_OF_ASC_NODE":232.154,"ARG_OF_PERICENTER":96.8748,"MEAN_ANOMALY":263.2575,"EPHEMERIS_TYPE":0,"CLASSIFICATION_TYPE":"U","NORAD_CAT_ID":48981,"ELEMENT_SET_NO":999,"REV_AT_EPOCH":23735,"BSTAR":0.00023367,"MEAN_MOTION_DOT":1.02e-06,"MEAN_MOTION_DDOT":0.0},{"OBJECT_NAME":"ONEWEB-0264","OBJECT_ID":"2021-060R","EPOCH":"2026-05-31T03:51:49.624992","MEAN_MOTION":13.16593596,"ECCENTRICITY":0.0001975,"INCLINATION":87.9108,"RA_OF_ASC_NODE":232.1652,"ARG_OF_PERICENTER":92.7077,"MEAN_ANOMALY":267.428,"EPHEMERIS_TYPE":0,"CLASSIFICATION_TYPE":"U","NORAD_CAT_ID":48982,"ELEMENT_SET_NO":999,"REV_AT_EPOCH":23735,"BSTAR":2.1295000000000002e-05,"MEAN_MOTION_DOT":2.1e-07,"MEAN_MOTION_DDOT":0.0},{"OBJECT_NAME":"ONEWEB-0266","OBJECT_ID":"2021-060T","EPOCH":"2026-05-31T04:22:35.370912","MEAN_MOTION":13.16593225,"ECCENTRICITY":0.0002085,"INCLINATION":87.9104,"RA_OF_ASC_NODE":232.1511,"ARG_OF_PERICENTER":101.5646,"MEAN_ANOMALY":258.5719,"EPHEMERIS_TYPE":0,"CLASSIFICATION_TYPE":"U","NORAD_CAT_ID":48984,"ELEMENT_SET_NO":999,"REV_AT_EPOCH":23734,"BSTAR":-9.516400000000001e-05,"MEAN_MOTION_DOT":-2.4e-07,"MEAN_MOTION_DDOT":0.0},{"OBJECT_NAME":"ONEWEB-0267","OBJECT_ID":"2021-060U","EPOCH":"2026-05-31T04:38:33.507168","MEAN_MOTION":13.16593171,"ECCENTRICITY":0.0001838,"INCLINATION":87.9104,"RA_OF_ASC_NODE":232.1454,"ARG_OF_PERICENTER":93.3956,"MEAN_ANOMALY":266.7385,"EPHEMERIS_TYPE":0,"CLASSIFICATION_TYPE":"U","NORAD_CAT_ID":48985,"ELEMENT_SET_NO":999,"REV_AT_EPOCH":23735,"BSTAR":3.7321e-05,"MEAN_MOTION_DOT":2.7e-07,"MEAN_MOTION_DDOT":0.0},{"OBJECT_NAME":"ONEWEB-0268","OBJECT_ID":"2021-060V","EPOCH":"2026-05-31T03:52:57.772128","MEAN_MOTION":13.16595273,"ECCENTRICITY":0.0002106,"INCLINATION":87.9109,"RA_OF_ASC_NODE":232.1612,"ARG_OF_PERICENTER":96.4507,"MEAN_ANOMALY":263.6864,"EPHEMERIS_TYPE":0,"CLASSIFICATION_TYPE":"U","NORAD_CAT_ID":48986,"ELEMENT_SET_NO":999,"REV_AT_EPOCH":23761,"BSTAR":-1.478e-06,"MEAN_MOTION_DOT":1.2e-07,"MEAN_MOTION_DDOT":0.0},{"OBJECT_NAME":"ONEWEB-0269","OBJECT_ID":"2021-060W","EPOCH":"2026-05-31T03:25:35.978592","MEAN_MOTION":13.16593332,"ECCENTRICITY":0.0002226,"INCLINATION":87.9094,"RA_OF_ASC_NODE":232.1695,"ARG_OF_PERICENTER":99.4142,"MEAN_ANOMALY":260.724,"EPHEMERIS_TYPE":0,"CLASSIFICATION_TYPE":"U","NORAD_CAT_ID":48987,"ELEMENT_SET_NO":999,"REV_AT_EPOCH":23738,"BSTAR":0.00017308000000000002,"MEAN_MOTION_DOT":7.9e-07,"MEAN_MOTION_DDOT":0.0},{"OBJECT_NAME":"ONEWEB-0270","OBJECT_ID":"2021-060X","EPOCH":"2026-05-31T03:50:40.860096","MEAN_MOTION":13.16593652,"ECCENTRICITY":0.0001625,"INCLINATION":87.9109,"RA_OF_ASC_NODE":232.1633,"ARG_OF_PERICENTER":99.2833,"MEAN_ANOMALY":260.8482,"EPHEMERIS_TYPE":0,"CLASSIFICATION_TYPE":"U","NORAD_CAT_ID":48988,"ELEMENT_SET_NO":999,"REV_AT_EPOCH":23742,"BSTAR":2.7448000000000002e-05,"MEAN_MOTION_DOT":2.3e-07,"MEAN_MOTION_DDOT":0.0},{"OBJECT_NAME":"ONEWEB-0271","OBJECT_ID":"2021-060Y","EPOCH":"2026-05-31T03:32:26.388960","MEAN_MOTION":13.16593362,"ECCENTRICITY":0.0001755,"INCLINATION":87.9105,"RA_OF_ASC_NODE":232.1562,"ARG_OF_PERICENTER":96.1029,"MEAN_ANOMALY":264.0302,"EPHEMERIS_TYPE":0,"CLASSIFICATION_TYPE":"U","NORAD_CAT_ID":48989,"ELEMENT_SET_NO":999,"REV_AT_EPOCH":23742,"BSTAR":0.00024054,"MEAN_MOTION_DOT":1.05e-06,"MEAN_MOTION_DDOT":0.0},{"OBJECT_NAME":"ONEWEB-0272","OBJECT_ID":"2021-060Z","EPOCH":"2026-05-30T06:11:07.306080","MEAN_MOTION":13.16595438,"ECCENTRICITY":0.0002044,"INCLINATION":87.9107,"RA_OF_ASC_NODE":232.3444,"ARG_OF_PERICENTER":90.6503,"MEAN_ANOMALY":269.4862,"EPHEMERIS_TYPE":0,"CLASSIFICATION_TYPE":"U","NORAD_CAT_ID":48990,"ELEMENT_SET_NO":999,"REV_AT_EPOCH":23725,"BSTAR":-0.00015013000000000003,"MEAN_MOTION_DOT":-4.5e-07,"MEAN_MOTION_DDOT":0.0},{"OBJECT_NAME":"ONEWEB-0273","OBJECT_ID":"2021-060AA","EPOCH":"2026-05-31T04:36:16.799904","MEAN_MOTION":13.16593489,"ECCENTRICITY":0.0001867,"INCLINATION":87.9106,"RA_OF_ASC_NODE":232.158,"ARG_OF_PERICENTER":98.9964,"MEAN_ANOMALY":261.1378,"EPHEMERIS_TYPE":0,"CLASSIFICATION_TYPE":"U","NORAD_CAT_ID":48991,"ELEMENT_SET_NO":999,"REV_AT_EPOCH":23735,"BSTAR":5.6506000000000004e-05,"MEAN_MOTION_DOT":3.4e-07,"MEAN_MOTION_DDOT":0.0},{"OBJECT_NAME":"ONEWEB-0274","OBJECT_ID":"2021-060AB","EPOCH":"2026-05-31T05:12:44.187840","MEAN_MOTION":13.1659334,"ECCENTRICITY":0.0002124,"INCLINATION":87.9099,"RA_OF_ASC_NODE":232.1569,"ARG_OF_PERICENTER":90.6926,"MEAN_ANOMALY":269.4448,"EPHEMERIS_TYPE":0,"CLASSIFICATION_TYPE":"U","NORAD_CAT_ID":48992,"ELEMENT_SET_NO":999,"REV_AT_EPOCH":23739,"BSTAR":0.00023932,"MEAN_MOTION_DOT":1.04e-06,"MEAN_MOTION_DDOT":0.0}]