ONEWEB-0258             
1 48976U 21060K   26151.15702365 -.00000046  00000+0 -15296-3 0  9994
2 48976  87.9107 232.1641 0001949  99.2966 260.8385 13.16593655237357
ONEWEB-0259             
1 48977U 21060L   26151.15069777  .00000055  00000+0  11082-3 0  9995
2 48977  87.9106 232.1648 0001865 101.8848 258.2492 13.16593598237389
ONEWEB-0260             
1 48978U 21060M   26151.21797259  .00000081  00000+0  17731-3 0  9992
2 48978  87.9101 232.1537 0002233  90.3140 269.8246 13.16593114237377
ONEWEB-0261             
1 48979U 21060N   26151.18789711  .00000007  00000+0 -15336-4 0  9992
2 48979  87.9102 232.1595 0001749  92.3806 267.7525 13.16594793237422
ONEWEB-0262             
1 48980U 21060P   26150.63613162 -.00000022  00000+0 -91490-4 0  9992
2 48980  87.9107 232.2545 0001858 106.7387 253.3948 13.16593524237319
ONEWEB-0263             
1 48981U 21060Q   26151.19977566  .00000102  00000+0  23367-3 0  9990
2 48981  87.9106 232.1540 0001680  96.8748 263.2575 13.16593687237356
ONEWEB-0264             
1 48982U 21060R   26151.16099103  .00000021  00000+0  21295-4 0  9999
2 48982  87.9108 232.1652 0001975  92.7077 267.4280 13.16593596237358
ONEWEB-0266             
1 48984U 21060T   26151.18235383 -.00000024  00000+0 -95164-4 0  9996
2 48984  87.9104 232.1511 0002085 101.5646 258.5719 13.16593225237340
ONEWEB-0267             
1 48985U 21060U   26151.19344337  .00000027  00000+0  37321-4 0  9990
2 48985  87.9104 232.1454 0001838  93.3956 266.7385 13.16593171237355
ONEWEB-0268             
1 48986U 21060V   26151.16177977  .00000012  00000+0 -14780-5 0  9992
2 48986  87.9109 232.1612 0002106  96.4507 263.6864 13.16595273237614
ONEWEB-0269             
1 48987U 21060W   26151.14277753  .00000079  00000+0  17308-3 0  9993
2 48987  87.9094 232.1695 0002226  99.4142 260.7240 13.16593332237384
ONEWEB-0270             
1 48988U 21060X   26151.16019514  .00000023  00000+0  27448-4 0  9991
2 48988  87.9109 232.1633 0001625  99.2833 260.8482 13.16593652237420
ONEWEB-0271             
1 48989U 21060Y   26151.14752765  .00000105  00000+0  24054-3 0  9992
2 48989  87.9105 232.1562 0001755  96.1029 264.0302 13.16593362237420
ONEWEB-0272             
1 48990U 21060Z   26150.25772345 -.00000045  00000+0 -15013-3 0  9991
2 48990  87.9107 232.3444 0002044  90.6503 269.4862 13.16595438237250
ONEWEB-0273             
1 48991U 21060AA  26151.19186111  .00000034  00000+0  56506-4 0  9995
2 48991  87.9106 232.1580 0001867  98.9964 261.1378 13.16593489237359
ONEWEB-0274             
1 48992U 21060AB  26151.21717810  .00000104  00000+0  23932-3 0  9999
2 48992  87.9099 232.1569 0002124  90.6926 269.4448 13.16593340237391
